ONEWEB-0240             
1 48785U 21045U   24060.95514783 -.00000091  00000+0 -27645-3 0  9996
2 48785  87.8948  66.0019 0001664  74.9120 285.2195 13.15549450134197
ONEWEB-0246             
1 48786U 21045V   24060.94959289 -.00000001  00000+0 -37393-4 0  9993
2 48786  87.8950  66.0059 0002082  85.7632 274.3737 13.15546547134069
ONEWEB-0210             
1 48787U 21045W   24060.92424768  .00000167  00000+0  40873-3 0  9998
2 48787  87.8947  66.0174 0002520  79.0576 281.0837 13.15546875134109
ONEWEB-0214             
1 48788U 21045X   24060.93375412  .00000095  00000+0  21950-3 0  9996
2 48788  87.8948  66.0041 0002564  81.4337 278.7083 13.15550025134078
ONEWEB-0221             
1 48789U 21045Y   24060.94008875  .00000043  00000+0  79469-4 0  9996
2 48789  87.8951  66.0180 0001883  79.9454 280.1888 13.15546413134168
ONEWEB-0213             
1 48790U 21045Z   24060.92900744  .00000202  00000+0  50258-3 0  9993
2 48790  87.8949  66.0357 0001959  75.9464 284.1884 13.15547536134228
